GLOBALSTAR M068         
1 32266U 07048D   25030.18316626 -.00000055  00000+0  27076-3 0  9996
2 32266  51.9908   2.9364 0000806 172.7109 200.4994 12.62814601800410
GLOBALSTAR M079         
1 37188U 10054A   25029.75286740 -.00000114  00000+0 -56377-4 0  9993
2 37188  52.0013 201.2035 0000992  76.7769 296.3759 12.62270381658973
GLOBALSTAR M074         
1 37189U 10054B   25029.77945325 -.00000110  00000+0 -36656-4 0  9991
2 37189  51.9989 200.4664 0001223  94.9523 278.8316 12.62262429659587
GLOBALSTAR M076         
1 37190U 10054C   25029.98941271 -.00000104  00000+0 -37921-5 0  9992
2 37190  52.0008 199.9842 0001264  80.6152  48.8936 12.62277334659683
GLOBALSTAR M077         
1 37191U 10054D   25029.63410397 -.00000112  00000+0 -46998-4 0  9997
2 37191  52.0059 157.8844 0000968 105.6696 266.9568 12.62270237659652
GLOBALSTAR M075         
1 37192U 10054E   25029.92448595 -.00000083  00000+0  11644-3 0  9996
2 37192  51.9928 242.5173 0001031  82.7886  52.0197 12.62272635658386
GLOBALSTAR M073         
1 37193U 10054F   25029.92545580 -.00000117  00000+0 -73237-4 0  9995
2 37193  52.0049 156.2268 0000954  98.6711  39.3174 12.62262753660426
GLOBALSTAR M083         
1 37739U 11033A   25029.94558030 -.00000086  00000+0  99895-4 0  9997
2 37739  51.9857 105.0848 0000454 117.8033  52.8215 12.62271172629391
GLOBALSTAR M088         
1 37740U 11033B   25030.20133861 -.00000102  00000+0  12373-4 0  9996
2 37740  51.9758   9.9130 0000222  58.2294 315.3066 12.62267833625261
GLOBALSTAR M091         
1 37741U 11033C   25029.61577608 -.00000083  00000+0  11650-3 0  9995
2 37741  52.0024 335.0063 0000342  21.4814 149.4068 12.62273233625686
GLOBALSTAR M085         
1 37742U 11033D   25029.96393269 -.00000058  00000+0  25652-3 0  9992
2 37742  51.9870 285.1088 0000649  54.1617 319.4547 12.62264824626240
GLOBALSTAR M081         
1 37743U 11033E   25030.09867455 -.00000059  00000+0  24949-3 0  9991
2 37743  51.9962 287.3983 0000853  50.7569  96.6559 12.62259986626785
GLOBALSTAR M089         
1 37744U 11033F   25030.06293166 -.00000079  00000+0  14068-3 0  9994
2 37744  51.9910 241.7617 0001233  81.0640  82.8276 12.62265871627499
GLOBALSTAR M084         
1 38040U 11080A   25029.67888694 -.00000081  00000+0  12711-3 0  9993
2 38040  52.0006 110.1419 0000999 115.0560  43.5278 12.62273885605174
GLOBALSTAR M080         
1 38041U 11080B   25029.97272152 -.00000088  00000+0  86726-4 0  9998
2 38041  52.0059 110.8108 0001092  98.0900  73.2817 12.62260671605334
GLOBALSTAR M082         
1 38042U 11080C   25029.82701664 -.00000081  00000+0  12552-3 0  9996
2 38042  52.0080  66.6817 0000427 190.9405 340.3726 12.62272600606026
GLOBALSTAR M092         
1 38043U 11080D   25030.11728187 -.00000102  00000+0  10310-4 0  9995
2 38043  52.0074 156.1669 0000995 111.2681  59.7174 12.62272578604729
GLOBALSTAR M090         
1 38044U 11080E   25029.85427102 -.00000079  00000+0  13936-3 0  9997
2 38044  51.9891  60.5857 0000241 140.6700  33.9373 12.62266287606147
GLOBALSTAR M086         
1 38045U 11080F   25029.80074319 -.00000084  00000+0  10763-3 0  9992
2 38045  51.9903  61.2887 0000849  40.8981 130.7950 12.62266085606085
GLOBALSTAR M097         
1 39072U 13005A   25029.78969116 -.00000087  00000+0  92947-4 0  9995
2 39072  52.0070 335.7312 0000503  37.6670 322.4232 12.62269416553334
GLOBALSTAR M093         
1 39073U 13005B   25029.92098297 -.00000076  00000+0  15586-3 0  9996
2 39073  51.9833 328.8514 0000591  32.2441 327.8461 12.62272508553307
GLOBALSTAR M094         
1 39074U 13005C   25029.92146816 -.00000072  00000+0  17778-3 0  9999
2 39074  51.9934 243.0970 0000896  61.2705 298.8251 12.62267976554912
GLOBALSTAR M096         
1 39075U 13005D   25029.69715374 -.00000056  00000+0  26512-3 0  9993
2 39075  52.0082 292.1881 0000649  41.3687 318.7229 12.62267597553802
GLOBALSTAR M078         
1 39076U 13005E   25029.90765571 -.00000106  00000+0 -97718-5 0  9997
2 39076  51.9891  16.2373 0000702 220.2809 139.8005 12.62269474552454
GLOBALSTAR M095         
1 39077U 13005F   25029.93449811 -.00000102  00000+0  10070-4 0  9997
2 39077  51.9820  13.4242 0000296 278.6236  81.4597 12.62265751552317
GLOBALSTAR M087         
1 52888U 22064A   25029.88606152 -.00000111  00000+0 -38429-4 0  9993
2 52888  51.9780 154.9790 0000763 109.6495 250.4454 12.62268257127575
